

*******************************************************************************
Ephemeris / WWW_USER Sun Nov 19 19:43:56 2023 Pasadena, USA      / Horizons
*******************************************************************************
Target body name: THEMIS-C (spacecraft) (-193)    {source: THEMIS-C_merged}
Center body name: Moon (301)                      {source: DE441}
Center-site name: BODY CENTER
*******************************************************************************
Start time      : A.D. 2023-Oct-26 00:00:00.0000 TDB
Stop  time      : A.D. 2023-Oct-27 00:00:00.0000 TDB
Step-size       : 1 minutes
*******************************************************************************
Center geodetic : 0.0, 0.0, 0.0                   {E-lon(deg),Lat(deg),Alt(km)}
Center cylindric: 0.0, 0.0, 0.0                   {E-lon(deg),Dxy(km),Dz(km)}
Center radii    : 1737.4, 1737.4, 1737.4 km       {Equator_a, b, pole_c}
Output units    : KM-S
Calendar mode   : Mixed Julian/Gregorian
Output type     : GEOMETRIC cartesian states
Output format   : 1 (position only)
Reference frame : Ecliptic of J2000.0
*******************************************************************************
            JDTDB,            Calendar Date (TDB),                      X,                      Y,                      Z,
**************************************************************************************************************************
$$SOE
2460243.835416667, A.D. 2023-Oct-26 08:03:00.0000, -1.448465076147154E+04,  9.493395212905227E+03, -1.998351856451188E+03,
2460243.836111111, A.D. 2023-Oct-26 08:04:00.0000, -1.450220223183982E+04,  9.487358315128409E+03, -1.997451802731342E+03,
2460243.836805556, A.D. 2023-Oct-26 08:05:00.0000, -1.451970639768109E+04,  9.481289591436125E+03, -1.996544983184244E+03,
2460243.837500000, A.D. 2023-Oct-26 08:06:00.0000, -1.453716329402203E+04,  9.475189123139007E+03, -1.995631415508849E+03,
2460243.838194444, A.D. 2023-Oct-26 08:07:00.0000, -1.455457295494835E+04,  9.469056989230392E+03, -1.994711113493952E+03,
2460243.838888889, A.D. 2023-Oct-26 08:08:00.0000, -1.457193541633309E+04,  9.462893270420005E+03, -1.993784093602474E+03,
2460243.839583333, A.D. 2023-Oct-26 08:09:00.0000, -1.458925071317895E+04,  9.456698044919449E+03, -1.992850371263039E+03,
2460243.840277778, A.D. 2023-Oct-26 08:10:00.0000, -1.460651887861302E+04,  9.450471393744130E+03, -1.991909962146312E+03,
2460243.840972222, A.D. 2023-Oct-26 08:11:00.0000, -1.462373994751967E+04,  9.444213393398733E+03, -1.990962880899597E+03,
2460243.841666667, A.D. 2023-Oct-26 08:12:00.0000, -1.464091395393613E+04,  9.437924123946081E+03, -1.990009142789963E+03,
2460243.842361111, A.D. 2023-Oct-26 08:13:00.0000, -1.465804093182739E+04,  9.431603662301095E+03, -1.989048763691581E+03,
2460243.843055556, A.D. 2023-Oct-26 08:14:00.0000, -1.467512091332948E+04,  9.425252086500885E+03, -1.988081759012085E+03,
2460243.843750000, A.D. 2023-Oct-26 08:15:00.0000, -1.469215393325803E+04,  9.418869474890445E+03, -1.987108143278893E+03,
2460243.844444444, A.D. 2023-Oct-26 08:16:00.0000, -1.470914002374280E+04,  9.412455901777053E+03, -1.986127931224422E+03,
2460243.845138889, A.D. 2023-Oct-26 08:17:00.0000, -1.472607921773783E+04,  9.406011447064029E+03, -1.985141138074444E+03,
2460243.845833333, A.D. 2023-Oct-26 08:18:00.0000, -1.474297154730011E+04,  9.399536184213048E+03, -1.984147778231847E+03,
2460243.846527778, A.D. 2023-Oct-26 08:19:00.0000, -1.475981704627199E+04,  9.393030190556085E+03, -1.983147867884091E+03,
2460243.847222222, A.D. 2023-Oct-26 08:20:00.0000, -1.477661574584479E+04,  9.386493542053378E+03, -1.982141420457953E+03,
2460243.847916667, A.D. 2023-Oct-26 08:21:00.0000, -1.479336767794838E+04,  9.379926312733180E+03, -1.981128450654069E+03,
2460243.848611111, A.D. 2023-Oct-26 08:22:00.0000, -1.481007287364127E+04,  9.373328579149225E+03, -1.980108974273006E+03,
2460243.849305556, A.D. 2023-Oct-26 08:23:00.0000, -1.482673136579857E+04,  9.366700414090961E+03, -1.979083004501685E+03,
2460243.850000000, A.D. 2023-Oct-26 08:24:00.0000, -1.484334318548453E+04,  9.360041893203643E+03, -1.978050556736021E+03,
2460243.850694444, A.D. 2023-Oct-26 08:25:00.0000, -1.485990836279688E+04,  9.353353089677476E+03, -1.977011645332854E+03,
2460243.851388889, A.D. 2023-Oct-26 08:26:00.0000, -1.487642692959652E+04,  9.346634077001941E+03, -1.975966283780729E+03,
2460243.852083333, A.D. 2023-Oct-26 08:27:00.0000, -1.489289891599101E+04,  9.339884929957099E+03, -1.974914487092699E+03,
2460243.852777778, A.D. 2023-Oct-26 08:28:00.0000, -1.490932435290009E+04,  9.333105719981560E+03, -1.973856268895965E+03,
2460243.853472222, A.D. 2023-Oct-26 08:29:00.0000, -1.492570326945395E+04,  9.326296520547949E+03, -1.972791644705316E+03,
2460243.854166667, A.D. 2023-Oct-26 08:30:00.0000, -1.494203569652984E+04,  9.319457403389892E+03, -1.971720627286357E+03,
2460243.854861111, A.D. 2023-Oct-26 08:31:00.0000, -1.495832166324055E+04,  9.312588441477881E+03, -1.970643230899055E+03,
2460243.855555556, A.D. 2023-Oct-26 08:32:00.0000, -1.497456120043201E+04,  9.305689705764415E+03, -1.969559469964119E+03,
2460243.856250000, A.D. 2023-Oct-26 08:33:00.0000, -1.499075433536927E+04,  9.298761267498230E+03, -1.968469358057914E+03,
2460243.856944445, A.D. 2023-Oct-26 08:34:00.0000, -1.500690109975275E+04,  9.291803198737831E+03, -1.967372909100904E+03,
2460243.857638889, A.D. 2023-Oct-26 08:35:00.0000, -1.502300152082939E+04,  9.284815569518822E+03, -1.966270137123128E+03,
2460243.858333333, A.D. 2023-Oct-26 08:36:00.0000, -1.503905562751926E+04,  9.277798451010951E+03, -1.965161055681613E+03,
2460243.859027778, A.D. 2023-Oct-26 08:37:00.0000, -1.505506344878173E+04,  9.270751912229209E+03, -1.964045678444749E+03,
2460243.859722222, A.D. 2023-Oct-26 08:38:00.0000, -1.507102501271165E+04,  9.263676024132481E+03, -1.962924019773388E+03,
2460243.860416667, A.D. 2023-Oct-26 08:39:00.0000, -1.508694034728862E+04,  9.256570857280922E+03, -1.961796092013949E+03,
2460243.861111111, A.D. 2023-Oct-26 08:40:00.0000, -1.510280948051583E+04,  9.249436478692820E+03, -1.960661908887053E+03,
2460243.861805555, A.D. 2023-Oct-26 08:41:00.0000, -1.511863244037586E+04,  9.242272958985617E+03, -1.959521484763710E+03,
2460243.862500000, A.D. 2023-Oct-26 08:42:00.0000, -1.513440925393748E+04,  9.235080366732436E+03, -1.958374832099273E+03,
2460243.863194444, A.D. 2023-Oct-26 08:43:00.0000, -1.515013994912663E+04,  9.227858770047638E+03, -1.957221964136519E+03,
2460243.863888889, A.D. 2023-Oct-26 08:44:00.0000, -1.516582455205038E+04,  9.220608237504117E+03, -1.956062895322007E+03,
2460243.864583333, A.D. 2023-Oct-26 08:45:00.0000, -1.518146308969083E+04,  9.213328836710465E+03, -1.954897637757079E+03,
2460243.865277778, A.D. 2023-Oct-26 08:46:00.0000, -1.519705558994866E+04,  9.206020635333767E+03, -1.953726205489148E+03,
2460243.865972222, A.D. 2023-Oct-26 08:47:00.0000, -1.521260207800684E+04,  9.198683700943571E+03, -1.952548610566366E+03,
2460243.866666667, A.D. 2023-Oct-26 08:48:00.0000, -1.522810258169723E+04,  9.191318099498847E+03, -1.951364866327273E+03,
2460243.867361111, A.D. 2023-Oct-26 08:49:00.0000, -1.524355712523090E+04,  9.183923899411622E+03, -1.950174987213183E+03,
2460243.868055556, A.D. 2023-Oct-26 08:50:00.0000, -1.525896573545941E+04,  9.176501165712074E+03, -1.948978984204206E+03,
2460243.868750000, A.D. 2023-Oct-26 08:51:00.0000, -1.527432843748579E+04,  9.169049965921566E+03, -1.947776871292774E+03,
2460243.869444444, A.D. 2023-Oct-26 08:52:00.0000, -1.528964525727922E+04,  9.161570364621344E+03, -1.946568660282735E+03,
2460243.870138889, A.D. 2023-Oct-26 08:53:00.0000, -1.530491622079082E+04,  9.154062428931980E+03, -1.945354366044832E+03,
2460243.870833333, A.D. 2023-Oct-26 08:54:00.0000, -1.532014135213848E+04,  9.146526222832674E+03, -1.944133999200660E+03,
2460243.871527778, A.D. 2023-Oct-26 08:55:00.0000, -1.533532067631342E+04,  9.138961813118265E+03, -1.942907573336282E+03,
2460243.872222222, A.D. 2023-Oct-26 08:56:00.0000, -1.535045421736629E+04,  9.131369262992646E+03, -1.941675100717663E+03,
2460243.872916667, A.D. 2023-Oct-26 08:57:00.0000, -1.536554200117738E+04,  9.123748638154448E+03, -1.940436594642480E+03,
2460243.873611111, A.D. 2023-Oct-26 08:58:00.0000, -1.538058405184007E+04,  9.116100003055581E+03, -1.939192066875461E+03,
2460243.874305556, A.D. 2023-Oct-26 08:59:00.0000, -1.539558039243938E+04,  9.108423420502131E+03, -1.937941530439456E+03,
2460243.875000000, A.D. 2023-Oct-26 09:00:00.0000, -1.541053104787268E+04,  9.100718955690869E+03, -1.936684997445372E+03,
2460243.875694444, A.D. 2023-Oct-26 09:01:00.0000, -1.542543604215450E+04,  9.092986671790812E+03, -1.935422480064282E+03,
2460243.876388889, A.D. 2023-Oct-26 09:02:00.0000, -1.544029539744096E+04,  9.085226631551386E+03, -1.934153991346162E+03,
2460243.877083333, A.D. 2023-Oct-26 09:03:00.0000, -1.545510913761915E+04,  9.077438898417120E+03, -1.932879542662369E+03,
2460243.877777778, A.D. 2023-Oct-26 09:04:00.0000, -1.546987728574919E+04,  9.069623535968145E+03, -1.931599147371112E+03,
2460243.878472222, A.D. 2023-Oct-26 09:05:00.0000, -1.548459986484633E+04,  9.061780605949471E+03, -1.930312816108432E+03,
2460243.879166667, A.D. 2023-Oct-26 09:06:00.0000, -1.549927689882275E+04,  9.053910169811601E+03, -1.929020562338053E+03,
2460243.879861111, A.D. 2023-Oct-26 09:07:00.0000, -1.551390840794606E+04,  9.046012291747142E+03, -1.927722397784573E+03,
2460243.880555556, A.D. 2023-Oct-26 09:08:00.0000, -1.552849441693694E+04,  9.038087032306148E+03, -1.926418333530009E+03,
2460243.881250000, A.D. 2023-Oct-26 09:09:00.0000, -1.554303494698787E+04,  9.030134452855071E+03, -1.925108383006968E+03,
2460243.881944444, A.D. 2023-Oct-26 09:10:00.0000, -1.555753001915140E+04,  9.022154615845877E+03, -1.923792557236102E+03,
2460243.882638889, A.D. 2023-Oct-26 09:11:00.0000, -1.557197965629853E+04,  9.014147581286892E+03, -1.922470868103392E+03,
